{
    "links": {
        "self": "http://www.neowsapp.com/rest/v1/neo/3467166?api_key=iIulBulltgU6a56xZRHN4H3l9WmuAYTsLGpBGhQ2"
    },
    "id": "3467166",
    "neo_reference_id": "3467166",
    "name": "(2009 SA)",
    "designation": "2009 SA",
    "nasa_jpl_url": "http://ssd.jpl.nasa.gov/sbdb.cgi?sstr=3467166",
    "absolute_magnitude_h": 24.4,
    "estimated_diameter": {
        "kilometers": {
            "estimated_diameter_min": 0.0350392641,
            "estimated_diameter_max": 0.0783501764
        },
        "meters": {
            "estimated_diameter_min": 35.0392641108,
            "estimated_diameter_max": 78.3501764334
        },
        "miles": {
            "estimated_diameter_min": 0.0217723826,
            "estimated_diameter_max": 0.0486845275
        },
        "feet": {
            "estimated_diameter_min": 114.9582192654,
            "estimated_diameter_max": 257.0543928497
        }
    },
    "is_potentially_hazardous_asteroid": false,
    "close_approach_data": [
        {
            "close_approach_date": "2009-09-13",
            "close_approach_date_full": "2009-Sep-13 17:33",
            "epoch_date_close_approach": 1252863180000,
            "relative_velocity": {
                "kilometers_per_second": "8.9932307851",
                "kilometers_per_hour": "32375.6308264991",
                "miles_per_hour": "20116.9579432766"
            },
            "miss_distance": {
                "astronomical": "0.1445015498",
                "lunar": "56.2111028722",
                "kilometers": "21617124.061778926",
                "miles": "13432258.0299081388"
            },
            "orbiting_body": "Earth"
        }
    ],
    "orbital_data": {
        "orbit_id": "8",
        "orbit_determination_date": "2017-04-06 09:00:04",
        "first_observation_date": "2009-09-16",
        "last_observation_date": "2009-09-28",
        "data_arc_in_days": 12,
        "observations_used": 26,
        "orbit_uncertainty": "8",
        "minimum_orbit_intersection": ".14447",
        "jupiter_tisserand_invariant": "3.469",
        "epoch_osculation": "2455093.5",
        "eccentricity": ".4802808163520215",
        "semi_major_axis": "2.202763609901791",
        "inclination": "14.19298113148433",
        "ascending_node_longitude": "177.4807158677272",
        "orbital_period": "1194.126308716941",
        "perihelion_distance": "1.144818505107633",
        "perihelion_argument": "166.787343559661",
        "aphelion_distance": "3.26070871469595",
        "perihelion_time": "2455081.608568528435",
        "mean_anomaly": "3.584976981508041",
        "mean_motion": ".3014756457269674",
        "equinox": "J2000",
        "orbit_class": {
            "orbit_class_type": "AMO",
            "orbit_class_description": "Near-Earth asteroid orbits similar to that of 1221 Amor",
            "orbit_class_range": "1.017 AU < q (perihelion) < 1.3 AU"
        }
    },
    "is_sentry_object": false
}